OBJECT_NAME,OBJECT_ID,EPOCH,MEAN_MOTION,ECCENTRICITY,INCLINATION,RA_OF_ASC_NODE,ARG_OF_PERICENTER,MEAN_ANOMALY,EPHEMERIS_TYPE,CLASSIFICATION_TYPE,NORAD_CAT_ID,ELEMENT_SET_NO,REV_AT_EPOCH,BSTAR,MEAN_MOTION_DOT,MEAN_MOTION_DDOT
PERSEUS-M1,2014-033AF,2026-06-20T09:09:02.884032,14.95639538,.0010078,97.9641,115.5653,289.2139,70.7991,0,U,40039,999,65111,.1372E-3,.1465E-4,0
POLYITAN-1,2014-033AJ,2026-06-19T14:20:20.047200,15.33326342,.00087612,98.0942,197.0866,134.5443,225.6514,0,U,40042,999,65396,.47013999E-3,.15082E-3,0
TIGRISAT,2014-033AK,2026-06-20T08:23:42.471168,14.85172276,.0050483,97.7835,321.2886,65.0761,295.5688,0,U,40043,999,64609,.17429E-3,.1472E-4,0
AEROCUBE 6A,2014-033AM,2026-06-20T00:42:01.100160,14.98131862,.00386594,97.7254,337.9480,8.3765,351.8095,0,U,40045,999,64704,.33179392E-3,.3931E-4,0
AEROCUBE 6B,2014-033AN,2026-06-20T00:41:23.433216,14.99592335,.00380984,97.7250,337.7440,359.5463,0.5719,0,U,40046,999,64718,.32995605E-3,.406E-4,0
CANX-4,2014-034C,2026-06-20T09:27:48.747744,14.81269424,.0012926,98.3118,46.8251,7.0319,353.1072,0,U,40055,999,64500,.90911E-4,.652E-5,0
CANX-5,2014-034D,2026-06-20T11:02:46.426848,14.81286790,.0012919,98.3120,46.9372,7.0403,353.0987,0,U,40056,999,63582,.9127E-4,.655E-5,0
UKUBE-1,2014-037F,2026-06-19T22:40:36.544224,15.13591351,.00028071,98.4240,174.5065,127.2512,232.8973,0,U,40074,999,64897,.40346435E-3,.7166E-4,0
BRITE-PL2 (HEWELIUSZ),2014-049B,2026-06-20T07:39:17.958240,14.94603402,.0015385,97.9101,283.3430,99.1118,261.1844,0,U,40119,999,64191,.16422E-3,.1722E-4,0
AEROCUBE 5C,2015-058B,2026-06-20T09:20:39.625728,14.91464756,.0130892,64.7662,252.6285,62.0280,299.4006,0,U,40965,999,36613,.14809E-3,.1568E-4,0
AEROCUBE 7,2015-058C,2026-06-20T10:38:29.162112,14.95741024,.0120641,64.7612,234.6168,60.4023,300.9047,0,U,40966,999,36644,.19493E-3,.2336E-4,0
FOX-1A (AO-85),2015-058D,2026-06-20T10:30:41.563584,14.90981421,.0130605,64.7745,268.8811,55.3496,305.9846,0,U,40967,999,11405,.15762E-3,.1657E-4,0
SINOD-D 1,2015-058E,2026-06-20T08:29:54.423168,14.95921108,.0119256,64.7745,248.9954,51.8221,309.3563,0,U,40968,999,11713,.19469E-3,.2337E-4,0
SNAP-3 ALICE,2015-058G,2026-06-20T04:27:55.181376,15.60714090,.00272784,64.7494,93.5606,10.9470,349.2264,0,U,40970,999,11735,.14266437E-2,.123021E-2,0
LMRST-SAT,2015-058H,2026-06-20T09:27:31.440960,14.90600585,.0132237,64.7750,265.3615,57.3809,303.9985,0,U,40971,999,11403,.14608E-3,.1512E-4,0
SNAP-3 EDDIE,2015-058J,2026-06-20T04:10:02.870976,15.61994061,.00269778,64.7418,84.3057,14.7886,345.4044,0,U,40972,999,11949,.1295175E-2,.117223E-2,0
PROPCUBE 3,2015-058K,2026-06-20T08:31:03.281376,14.94270594,.0124207,64.7677,242.6387,58.6612,302.6588,0,U,40973,999,11527,.17337E-3,.1989E-4,0
BISONSAT,2015-058L,2026-06-20T07:56:44.754720,15.16253024,.0079422,64.7582,163.4794,45.9815,314.7817,0,U,40974,999,11609,.54486E-3,.11284E-3,0
SNAP-3 JIMI,2015-058M,2026-06-20T10:49:30.827136,15.02320729,.0106344,64.7633,209.4453,54.0536,307.0390,0,U,40975,999,11471,.25405E-3,.3616E-4,0
PROPCUBE 1 (FLORA),2015-058N,2026-06-20T08:26:51.865152,14.89233326,.0130904,64.7742,285.4273,59.7091,301.6897,0,U,40976,999,11673,.16064E-3,.1612E-4,0
SINOD-D 3,2015-058P,2026-06-20T10:53:48.401088,14.94031938,.0119447,64.7724,265.6178,56.8356,304.4148,0,U,40977,999,11524,.20489E-3,.2342E-4,0
HORYU-4,2016-012D,2026-06-20T08:58:18.499008,15.98761555,.0006572,30.9842,55.5784,292.5150,67.4817,0,U,41340,999,57132,.10448E-2,.528215E-2,.11166E-3
RAVAN,2016-067B,2026-06-20T06:16:42.902688,15.54942003,.0003898,97.9878,61.1885,22.2879,337.8542,0,U,41849,999,52817,.67877E-3,.45505E-3,0
CELTEE 1,2016-067C,2026-06-20T02:30:06.725664,15.19706183,.0001126,98.0669,37.8698,129.3909,230.7424,0,U,41850,999,52632,.21928844E-3,.4605E-4,0
OPTICUBE 04,2016-067D,2026-06-20T07:50:49.712064,15.09671004,.0016961,98.0696,23.7745,105.8379,254.4720,0,U,41851,999,52564,.12036E-3,.1872E-4,0
AEROCUBE 8D,2016-067E,2026-06-20T04:12:03.471552,15.24432262,.00048449,98.0674,41.5731,116.1739,243.9995,0,U,41852,999,52652,.25855886E-3,.6264E-4,0
AEROCUBE 8C,2016-067F,2026-06-19T14:36:47.023776,15.24674232,.00065037,98.0546,38.1882,62.3132,297.8763,0,U,41853,999,52643,.24098243E-3,.5876E-4,0
CORVUS BC2,2017-042X,2026-06-20T10:47:51.734112,15.06316764,.001462,97.4078,332.6724,100.3566,259.9310,0,U,42846,999,48755,.19859E-3,.2866E-4,0
CORVUS BC1,2017-042Y,2026-06-20T10:39:34.263648,15.06483462,.0013522,97.4109,333.4833,79.4836,280.7914,0,U,42847,999,48758,.16617E-3,.2398E-4,0
MAKERSAT 0,2017-073D,2026-06-20T04:25:15.653280,15.32181843,.01049414,97.4616,53.7262,262.1211,96.8109,0,U,43016,999,46692,.3993561E-3,.14694E-3,0
